{"type": "FeatureCollection", "features": [{"type": "Feature", "properties": {"norad_id": 32275, "name": "COSMOS 2433 (720)", "group": "glo-ops", "lat": 17.583220065062918, "lon": 133.49679927330078, "alt_km": 19129.46989077594, "timestamp": "2025-12-26T10:30:50.528465+00:00", "meta": {"OBJECT_NAME": "COSMOS 2433 (720)", "OBJECT_ID": "2007-052A", "EPOCH": "2025-12-26T05:29:12.768864", "MEAN_MOTION": 2.1310417, "ECCENTRICITY": 0.0005094, "INCLINATION": 65.676, "RA_OF_ASC_NODE": 321.7529, "ARG_OF_PERICENTER": 257.2732, "MEAN_ANOMALY": 102.6736, "EPHEMERIS_TYPE": 0, "CLASSIFICATION_TYPE": "U", "NORAD_CAT_ID": 32275, "ELEMENT_SET_NO": 999, "REV_AT_EPOCH": 14137, "BSTAR": 0, "MEAN_MOTION_DOT": -3.3e-07, "MEAN_MOTION_DDOT": 0}, "tle": {"line1": "1 32275U 07052A   25360.22862001 -.00000033  00000+0  00000+0 0  9995", "line2": "2 32275  65.6760 321.7529 0005094 257.2732 102.6736  2.13104170141376"}}, "geometry": {"type": "Point", "coordinates": [133.49679927330078, 17.583220065062918]}}, {"type": "Feature", "properties": {"norad_id": 32276, "name": "COSMOS 2432 (719)", "group": "glo-ops", "lat": 61.59435058600169, "lon": 85.22270970522816, "alt_km": 19148.374713577945, "timestamp": "2025-12-26T10:30:50.528489+00:00", "meta": {"OBJECT_NAME": "COSMOS 2432 (719)", "OBJECT_ID": "2007-052B", "EPOCH": "2025-12-24T04:32:38.772960", "MEAN_MOTION": 2.13103387, "ECCENTRICITY": 0.00113791, "INCLINATION": 65.6931, "RA_OF_ASC_NODE": 321.9458, "ARG_OF_PERICENTER": 314.7871, "MEAN_ANOMALY": 225.1187, "EPHEMERIS_TYPE": 0, "CLASSIFICATION_TYPE": "U", "NORAD_CAT_ID": 32276, "ELEMENT_SET_NO": 999, "REV_AT_EPOCH": 14135, "BSTAR": 0, "MEAN_MOTION_DOT": -3.3e-07, "MEAN_MOTION_DDOT": 0}, "tle": {"line1": "1 32276U 07052B   25358.18933765 -.00000033  00000+0  00000+0 0  9994", "line2": "2 32276  65.6931 321.9458 0011379 314.7871 225.1187  2.13103387141354"}}, "geometry": {"type": "Point", "coordinates": [85.22270970522816, 61.59435058600169]}}, {"type": "Feature", "properties": {"norad_id": 32393, "name": "COSMOS 2434 (721)", "group": "glo-ops", "lat": 44.568628228613974, "lon": -133.94671014377533, "alt_km": 19113.358209530554, "timestamp": "2025-12-26T10:30:50.528505+00:00", "meta": {"OBJECT_NAME": "COSMOS 2434 (721)", "OBJECT_ID": "2007-065A", "EPOCH": "2025-12-26T03:18:00.211680", "MEAN_MOTION": 2.13101396, "ECCENTRICITY": 0.0004807, "INCLINATION": 64.3159, "RA_OF_ASC_NODE": 197.7509, "ARG_OF_PERICENTER": 72.2168, "MEAN_ANOMALY": 108.4046, "EPHEMERIS_TYPE": 0, "CLASSIFICATION_TYPE": "U", "NORAD_CAT_ID": 32393, "ELEMENT_SET_NO": 999, "REV_AT_EPOCH": 14008, "BSTAR": 0, "MEAN_MOTION_DOT": 1.11e-06, "MEAN_MOTION_DDOT": 0}, "tle": {"line1": "1 32393U 07065A   25360.13750245  .00000111  00000+0  00000+0 0  9992", "line2": "2 32393  64.3159 197.7509 0004807  72.2168 108.4046  2.13101396140085"}}, "geometry": {"type": "Point", "coordinates": [-133.94671014377533, 44.568628228613974]}}, {"type": "Feature", "properties": {"norad_id": 32395, "name": "COSMOS 2436 (723)", "group": "glo-ops", "lat": -3.841691015445825, "lon": 19.66671758832648, "alt_km": 19176.284222598722, "timestamp": "2025-12-26T10:30:50.528518+00:00", "meta": {"OBJECT_NAME": "COSMOS 2436 (723)", "OBJECT_ID": "2007-065C", "EPOCH": "2025-12-25T23:03:53.315136", "MEAN_MOTION": 2.13100182, "ECCENTRICITY": 0.0017823, "INCLINATION": 64.3246, "RA_OF_ASC_NODE": 197.8273, "ARG_OF_PERICENTER": 10.3053, "MEAN_ANOMALY": 167.956, "EPHEMERIS_TYPE": 0, "CLASSIFICATION_TYPE": "U", "NORAD_CAT_ID": 32395, "ELEMENT_SET_NO": 999, "REV_AT_EPOCH": 14003, "BSTAR": 0, "MEAN_MOTION_DOT": 1.1e-06, "MEAN_MOTION_DDOT": 0}, "tle": {"line1": "1 32395U 07065C   25359.96103374  .00000110  00000+0  00000+0 0  9997", "line2": "2 32395  64.3246 197.8273 0017823  10.3053 167.9560  2.13100182140039"}}, "geometry": {"type": "Point", "coordinates": [19.66671758832648, -3.841691015445825]}}, {"type": "Feature", "properties": {"norad_id": 36111, "name": "COSMOS 2456 (730)", "group": "glo-ops", "lat": -25.468205857389872, "lon": -90.24031195555617, "alt_km": 19132.81730164034, "timestamp": "2025-12-26T10:30:50.528530+00:00", "meta": {"OBJECT_NAME": "COSMOS 2456 (730)", "OBJECT_ID": "2009-070A", "EPOCH": "2025-12-24T09:16:29.146080", "MEAN_MOTION": 2.13103739, "ECCENTRICITY": 0.00036447, "INCLINATION": 64.9059, "RA_OF_ASC_NODE": 76.94, "ARG_OF_PERICENTER": 294.9884, "MEAN_ANOMALY": 139.4332, "EPHEMERIS_TYPE": 0, "CLASSIFICATION_TYPE": "U", "NORAD_CAT_ID": 36111, "ELEMENT_SET_NO": 999, "REV_AT_EPOCH": 12470, "BSTAR": 0, "MEAN_MOTION_DOT": -1e-08, "MEAN_MOTION_DDOT": 0}, "tle": {"line1": "1 36111U 09070A   25358.38644845 -.00000001  00000+0  00000+0 0  9993", "line2": "2 36111  64.9059  76.9400 0003644 294.9884 139.4332  2.13103739124702"}}, "geometry": {"type": "Point", "coordinates": [-90.24031195555617, -25.468205857389872]}}, {"type": "Feature", "properties": {"norad_id": 36112, "name": "COSMOS 2457 (733)", "group": "glo-ops", "lat": -20.410976259247537, "lon": 66.6946648067904, "alt_km": 19144.30336504707, "timestamp": "2025-12-26T10:30:50.528556+00:00", "meta": {"OBJECT_NAME": "COSMOS 2457 (733)", "OBJECT_ID": "2009-070B", "EPOCH": "2025-12-25T12:53:15.895392", "MEAN_MOTION": 2.13101109, "ECCENTRICITY": 0.0004451, "INCLINATION": 64.8923, "RA_OF_ASC_NODE": 76.7479, "ARG_OF_PERICENTER": 163.6164, "MEAN_ANOMALY": 202.4906, "EPHEMERIS_TYPE": 0, "CLASSIFICATION_TYPE": "U", "NORAD_CAT_ID": 36112, "ELEMENT_SET_NO": 999, "REV_AT_EPOCH": 12473, "BSTAR": 0, "MEAN_MOTION_DOT": -5e-08, "MEAN_MOTION_DDOT": 0}, "tle": {"line1": "1 36112U 09070B   25359.53698953 -.00000005  00000+0  00000+0 0  9995", "line2": "2 36112  64.8923  76.7479 0004451 163.6164 202.4906  2.13101109124736"}}, "geometry": {"type": "Point", "coordinates": [66.6946648067904, -20.410976259247537]}}, {"type": "Feature", "properties": {"norad_id": 36402, "name": "COSMOS 2460 (732)", "group": "glo-ops", "lat": -20.733379200107635, "lon": -49.62550209598294, "alt_km": 19128.808742107725, "timestamp": "2025-12-26T10:30:50.528571+00:00", "meta": {"OBJECT_NAME": "COSMOS 2460 (732)", "OBJECT_ID": "2010-007C", "EPOCH": "2025-12-25T05:13:15.714336", "MEAN_MOTION": 2.13106358, "ECCENTRICITY": 0.00024876, "INCLINATION": 65.5229, "RA_OF_ASC_NODE": 320.3522, "ARG_OF_PERICENTER": 284.3328, "MEAN_ANOMALY": 196.3839, "EPHEMERIS_TYPE": 0, "CLASSIFICATION_TYPE": "U", "NORAD_CAT_ID": 36402, "ELEMENT_SET_NO": 999, "REV_AT_EPOCH": 12302, "BSTAR": 0, "MEAN_MOTION_DOT": -3.2e-07, "MEAN_MOTION_DDOT": 0}, "tle": {"line1": "1 36402U 10007C   25359.21754299 -.00000032  00000+0  00000+0 0  9990", "line2": "2 36402  65.5229 320.3522 0002487 284.3328 196.3839  2.13106358123020"}}, "geometry": {"type": "Point", "coordinates": [-49.62550209598294, -20.733379200107635]}}, {"type": "Feature", "properties": {"norad_id": 37867, "name": "COSMOS 2476 (744)", "group": "glo-ops", "lat": 54.344600290299105, "lon": -141.40855226646065, "alt_km": 19153.523669504873, "timestamp": "2025-12-26T10:30:50.528583+00:00", "meta": {"OBJECT_NAME": "COSMOS 2476 (744)", "OBJECT_ID": "2011-064A", "EPOCH": "2025-12-26T00:51:29.512800", "MEAN_MOTION": 2.1310389, "ECCENTRICITY": 0.0024563, "INCLINATION": 65.1688, "RA_OF_ASC_NODE": 78.7218, "ARG_OF_PERICENTER": 235.0609, "MEAN_ANOMALY": 293.0048, "EPHEMERIS_TYPE": 0, "CLASSIFICATION_TYPE": "U", "NORAD_CAT_ID": 37867, "ELEMENT_SET_NO": 999, "REV_AT_EPOCH": 11007, "BSTAR": 0, "MEAN_MOTION_DOT": -5e-08, "MEAN_MOTION_DDOT": 0}, "tle": {"line1": "1 37867U 11064A   25360.03575825 -.00000005  00000+0  00000+0 0  9998", "line2": "2 37867  65.1688  78.7218 0024563 235.0609 293.0048  2.13103890110077"}}, "geometry": {"type": "Point", "coordinates": [-141.40855226646065, 54.344600290299105]}}, {"type": "Feature", "properties": {"norad_id": 37868, "name": "COSMOS 2477 (745)", "group": "glo-ops", "lat": -53.41927869425482, "lon": 40.27560178500641, "alt_km": 19110.193935234376, "timestamp": "2025-12-26T10:30:50.528595+00:00", "meta": {"OBJECT_NAME": "COSMOS 2477 (745)", "OBJECT_ID": "2011-064B", "EPOCH": "2025-12-24T15:22:57.950400", "MEAN_MOTION": 2.13103036, "ECCENTRICITY": 0.00215718, "INCLINATION": 65.1748, "RA_OF_ASC_NODE": 78.8466, "ARG_OF_PERICENTER": 235.4688, "MEAN_ANOMALY": 123.4303, "EPHEMERIS_TYPE": 0, "CLASSIFICATION_TYPE": "U", "NORAD_CAT_ID": 37868, "ELEMENT_SET_NO": 999, "REV_AT_EPOCH": 11003, "BSTAR": 0, "MEAN_MOTION_DOT": 1e-08, "MEAN_MOTION_DDOT": 0}, "tle": {"line1": "1 37868U 11064B   25358.64094850  .00000001  00000+0  00000+0 0  9992", "line2": "2 37868  65.1748  78.8466 0021571 235.4688 123.4303  2.13103036110036"}}, "geometry": {"type": "Point", "coordinates": [40.27560178500641, -53.41927869425482]}}, {"type": "Feature", "properties": {"norad_id": 37869, "name": "COSMOS 2475 (743)", "group": "glo-ops", "lat": -60.50271939604824, "lon": -46.415902596793565, "alt_km": 19068.10372218324, "timestamp": "2025-12-26T10:30:50.528606+00:00", "meta": {"OBJECT_NAME": "COSMOS 2475 (743)", "OBJECT_ID": "2011-064C", "EPOCH": "2025-12-26T02:48:59.782176", "MEAN_MOTION": 2.13101658, "ECCENTRICITY": 0.0026816, "INCLINATION": 65.1822, "RA_OF_ASC_NODE": 78.8169, "ARG_OF_PERICENTER": 249.2724, "MEAN_ANOMALY": 118.1607, "EPHEMERIS_TYPE": 0, "CLASSIFICATION_TYPE": "U", "NORAD_CAT_ID": 37869, "ELEMENT_SET_NO": 999, "REV_AT_EPOCH": 11008, "BSTAR": 0, "MEAN_MOTION_DOT": -5e-08, "MEAN_MOTION_DDOT": 0}, "tle": {"line1": "1 37869U 11064C   25360.11735859 -.00000005  00000+0  00000+0 0  9994", "line2": "2 37869  65.1822  78.8169 0026816 249.2724 118.1607  2.13101658110082"}}, "geometry": {"type": "Point", "coordinates": [-46.415902596793565, -60.50271939604824]}}]}